NORAD_CAT_ID,OBJECT_NAME,OBJECT_TYPE,EPOCH,MEAN_MOTION,ECCENTRICITY,INCLINATION,RA_OF_ASC_NODE,ARG_OF_PERICENTER,MEAN_ANOMALY,BSTAR,MEAN_MOTION_DOT,MEAN_MOTION_DDOT,TLE_LINE0,TLE_LINE1,TLE_LINE2,SEMIMAJOR_AXIS,PERIOD,APOGEE,PERIGEE,DECAYED
54794.0,STARLINK-5392,PAYLOAD,2023-07-30 10:07:55,15.12107429,4.63e-05,53.2199,356.8379,17.6753,342.4257,-6.4509e-05,-1.42e-05,0.0,0 STARLINK-5392,1 54794U 22175AN  23211.42216454 -.00001420  00000-0 -64509-4 0  9990,2 54794  53.2199 356.8379 0000463  17.6753 342.4257 15.12107429 33941,6907.911,95.231,530.096,529.456,0.0
54794.0,STARLINK-5392,PAYLOAD,2023-07-30 16:28:36,15.12121453,6.17e-05,53.2195,355.6458,20.0882,340.0135,4.9463e-05,5.65e-06,0.0,0 STARLINK-5392,1 54794U 22175AN  23211.68653741  .00000565  00000-0  49463-4 0  9991,2 54794  53.2195 355.6458 0000617  20.0882 340.0135 15.12121453 33980,6907.868,95.23,530.16,529.307,0.0
54794.0,STARLINK-5392,PAYLOAD,2023-07-31 09:55:35,15.1211226,8.61e-05,53.2186,352.367,37.601,322.5043,-4.9013e-05,-1.151e-05,0.0,0 STARLINK-5392,1 54794U 22175AN  23212.41360750 -.00001151  00000-0 -49013-4 0  9993,2 54794  53.2186 352.3670 0000861  37.6010 322.5043 15.12112260 34090,6907.896,95.231,530.356,529.167,0.0
54794.0,STARLINK-5392,PAYLOAD,2023-07-31 19:26:39,15.12116074,5.65e-05,53.2195,350.577,52.1906,307.9139,5.5976e-05,6.78e-06,0.0,0 STARLINK-5392,1 54794U 22175AN  23212.81017899  .00000678  00000-0  55976-4 0  9996,2 54794  53.2195 350.5770 0000565  52.1906 307.9139 15.12116074 34155,6907.885,95.231,530.14,529.36,0.0
54794.0,STARLINK-5392,PAYLOAD,2023-08-01 09:43:17,15.12103221,5.26e-05,53.2197,347.8932,43.2668,316.8367,-9.6088e-06,-4.64e-06,0.0,0 STARLINK-5392,1 54794U 22175AN  23213.40505858 -.00000464  00000-0 -96088-5 0  9994,2 54794  53.2197 347.8932 0000526  43.2668 316.8367 15.12103221 34241,6907.924,95.232,530.152,529.426,0.0
54794.0,STARLINK-5392,PAYLOAD,2023-08-01 16:03:59,15.12110917,5.58e-05,53.2207,346.7031,62.3526,297.7524,-3.9123e-05,-9.78e-06,0.0,0 STARLINK-5392,1 54794U 22175AN  23213.66944175 -.00000978  00000-0 -39123-4 0  9997,2 54794  53.2207 346.7031 0000558  62.3526 297.7524 15.12110917 34287,6907.901,95.231,530.151,529.38,0.0
54794.0,STARLINK-5392,PAYLOAD,2023-08-02 07:55:46,15.12115031,5.69e-05,53.2202,343.719,57.3602,302.7446,6.2882e-05,7.99e-06,0.0,0 STARLINK-5392,1 54794U 22175AN  23214.33039896  .00000799  00000-0  62882-4 0  9994,2 54794  53.2202 343.7190 0000569  57.3602 302.7446 15.12115031 34389,6907.888,95.231,530.146,529.36,0.0
54794.0,STARLINK-5392,PAYLOAD,2023-08-03 15:39:21,15.12105964,4.89e-05,53.2197,337.7538,89.8982,270.2067,-2.0713e-05,-6.58e-06,0.0,0 STARLINK-5392,1 54794U 22175AN  23215.65233542 -.00000658  00000-0 -20713-4 0  9997,2 54794  53.2197 337.7538 0000489  89.8982 270.2067 15.12105964 34587,6907.916,95.231,530.118,529.443,0.0
54794.0,STARLINK-5392,PAYLOAD,2023-08-04 15:27:01,15.12116804,6.6e-05,53.2199,333.2811,55.9771,304.1286,8.0565e-05,1.107e-05,0.0,0 STARLINK-5392,1 54794U 22175AN  23216.64377251  .00001107  00000-0  80565-4 0  9992,2 54794  53.2199 333.2811 0000660  55.9771 304.1286 15.12116804 34737,6907.883,95.231,530.204,529.292,0.0
54794.0,STARLINK-5392,PAYLOAD,2023-08-04 20:12:31,15.12148147,9.51e-05,53.2198,332.3855,33.7244,326.381,0.00019749,3.148e-05,0.0,0 STARLINK-5392,1 54794U 22175AN  23216.84203696  .00003148  00000-0  19749-3 0  9997,2 54794  53.2198 332.3855 0000951  33.7244 326.3810 15.12148147 34763,6907.787,95.229,530.309,528.995,0.0
54794.0,STARLINK-5392,PAYLOAD,2023-08-05 07:18:46,15.12135272,3.35e-05,53.2189,330.2968,145.0422,215.0593,0.00020712,3.315e-05,0.0,0 STARLINK-5392,1 54794U 22175AN  23217.30470845  .00003315  00000-0  20712-3 0  9999,2 54794  53.2189 330.2968 0000335 145.0422 215.0593 15.12135272 34831,6907.826,95.23,529.923,529.46,0.0
54794.0,STARLINK-5392,PAYLOAD,2023-08-06 00:45:44,15.12132529,0.0001003,53.2196,327.0202,48.716,311.3919,0.00011996,1.794e-05,0.0,0 STARLINK-5392,1 54794U 22175AN  23218.03176725  .00001794  00000-0  11996-3 0  9993,2 54794  53.2196 327.0202 0001003  48.7160 311.3919 15.12132529 34941,6907.835,95.23,530.393,529.007,0.0
54794.0,STARLINK-5392,PAYLOAD,2023-08-06 16:37:33,15.12112727,8.41e-05,53.2198,324.037,62.0159,298.0919,-0.0001372,-2.686e-05,0.0,0 STARLINK-5392,1 54794U 22175AN  23218.69275142 -.00002686  00000-0 -13720-3 0  9998,2 54794  53.2198 324.0370 0000841  62.0159 298.0919 15.12112727 35043,6907.895,95.231,530.341,529.179,0.0
54794.0,STARLINK-5392,PAYLOAD,2023-08-07 18:00:27,15.12094961,7.64e-05,53.219,319.2649,91.1638,268.9444,-0.00035718,-6.511e-05,0.0,0 STARLINK-5392,1 54794U 22175AN  23219.75031251 -.00006511  00000-0 -35718-3 0  9999,2 54794  53.2190 319.2649 0000764  91.1638 268.9444 15.12094961 35205,6907.949,95.232,530.342,529.286,0.0
54794.0,STARLINK-5392,PAYLOAD,2023-08-08 16:12:57,15.12095825,0.0001031,53.2205,315.0892,86.6671,273.4441,7.665e-05,1.038e-05,0.0,0 STARLINK-5392,1 54794U 22175AN  23220.67566232  .00001038  00000-0  76650-4 0  9992,2 54794  53.2205 315.0892 0001031  86.6671 273.4441 15.12095825 35343,6907.946,95.232,530.524,529.099,0.0
54794.0,STARLINK-5392,PAYLOAD,2023-08-09 09:39:54,15.12114297,0.0001254,53.2196,311.8128,36.051,324.0568,0.00020502,3.276e-05,0.0,0 STARLINK-5392,1 54794U 22175AN  23221.40271062  .00003276  00000-0  20502-3 0  9998,2 54794  53.2196 311.8128 0001254  36.0510 324.0568 15.12114297 35456,6907.89,95.231,530.621,528.889,0.0
54794.0,STARLINK-5392,PAYLOAD,2023-08-09 16:00:35,15.1212777,0.0001166,53.2195,310.6198,84.0753,276.0374,0.00034181,5.664e-05,0.0,0 STARLINK-5392,1 54794U 22175AN  23221.66708029  .00005664  00000-0  34181-3 0  9995,2 54794  53.2195 310.6198 0001166  84.0753 276.0374 15.12127770 35498,6907.849,95.23,530.52,528.909,0.0
54794.0,STARLINK-5392,PAYLOAD,2023-08-10 09:27:35,15.12105791,0.0001227,53.2186,307.3374,95.8803,264.233,7.4751e-05,1.005e-05,0.0,0 STARLINK-5392,1 54794U 22175AN  23222.39416359  .00001005  00000-0  74751-4 0  9991,2 54794  53.2186 307.3374 0001227  95.8803 264.2330 15.12105791 35604,6907.916,95.231,530.629,528.934,0.0
54794.0,STARLINK-5392,PAYLOAD,2023-08-11 17:11:09,15.12126827,0.0001334,53.2193,301.3731,90.5968,269.5179,-0.00017131,-3.282e-05,0.0,0 STARLINK-5392,1 54794U 22175AN  23223.71608737 -.00003282  00000-0 -17131-3 0  9990,2 54794  53.2193 301.3731 0001334  90.5968 269.5179 15.12126827 35800,6907.852,95.23,530.639,528.796,0.0
54794.0,STARLINK-5392,PAYLOAD,2023-08-12 10:38:08,15.12109398,0.0001375,53.2195,298.0921,92.4811,267.634,1.9982e-05,5.1e-07,0.0,0 STARLINK-5392,1 54794U 22175AN  23224.44314918  .00000051  00000-0  19982-4 0  9992,2 54794  53.2195 298.0921 0001375  92.4811 267.6340 15.12109398 35913,6907.905,95.231,530.72,528.82,0.0
54794.0,STARLINK-5392,PAYLOAD,2023-08-13 16:46:32,15.12113235,0.0001543,53.2193,292.426,86.0469,274.0701,6.2275e-05,7.88e-06,0.0,0 STARLINK-5392,1 54794U 22175AN  23225.69898162  .00000788  00000-0  62275-4 0  9998,2 54794  53.2193 292.4260 0001543  86.0469 274.0701 15.12113235 36100,6907.893,95.231,530.824,528.693,0.0
54794.0,STARLINK-5392,PAYLOAD,2023-08-14 21:19:45,15.12118631,0.0001554,53.2188,287.0586,78.2498,281.8669,1.5701e-05,-2.4e-07,0.0,0 STARLINK-5392,1 54794U 22175AN  23226.88871599 -.00000024  00000-0  15701-4 0  9991,2 54794  53.2188 287.0586 0001554  78.2498 281.8669 15.12118631 36285,6907.877,95.231,530.816,528.669,0.0
54794.0,STARLINK-5392,PAYLOAD,2023-08-15 10:01:11,15.12103776,0.000156,53.2187,284.673,85.1749,274.9423,0.00013874,2.12e-05,0.0,0 STARLINK-5392,1 54794U 22175AN  23227.41749287  .00002120  00000-0  13874-3 0  9995,2 54794  53.2187 284.6730 0001560  85.1749 274.9423 15.12103776 36365,6907.922,95.232,530.865,528.71,0.0
54794.0,STARLINK-5392,PAYLOAD,2023-08-15 13:11:32,15.1212604,0.0001483,53.2186,284.0767,81.5946,278.5216,-8.2771e-05,-1.74e-05,0.0,0 STARLINK-5392,1 54794U 22175AN  23227.54967986 -.00001740  00000-0 -82771-4 0  9999,2 54794  53.2186 284.0767 0001483  81.5946 278.5216 15.12126040 36382,6907.854,95.23,530.744,528.695,0.0
54794.0,STARLINK-5392,PAYLOAD,2023-08-16 09:48:51,15.1211457,0.0001533,53.2188,280.2001,82.3144,277.8024,1.7891e-05,1.4e-07,0.0,0 STARLINK-5392,1 54794U 22175AN  23228.40893473  .00000014  00000-0  17891-4 0  9996,2 54794  53.2188 280.2001 0001533  82.3144 277.8024 15.12114570 36517,6907.889,95.231,530.813,528.695,0.0
54794.0,STARLINK-5392,PAYLOAD,2023-08-17 09:36:32,15.12120698,0.0001324,53.2183,275.7257,88.7232,271.3913,1.629e-05,-1.4e-07,0.0,0 STARLINK-5392,1 54794U 22175AN  23229.40037428 -.00000014  00000-0  16290-4 0  9990,2 54794  53.2183 275.7257 0001324  88.7232 271.3913 15.12120698 36660,6907.871,95.23,530.65,528.821,0.0
54794.0,STARLINK-5392,PAYLOAD,2023-08-18 09:24:13,15.12114365,0.0001466,53.2193,271.2545,77.6105,282.5053,-4.1311e-06,-3.69e-06,0.0,0 STARLINK-5392,1 54794U 22175AN  23230.39182526 -.00000369  00000-0 -41311-5 0  9997,2 54794  53.2193 271.2545 0001466  77.6105 282.5053 15.12114365 36815,6907.89,95.231,530.768,528.742,0.0
54794.0,STARLINK-5392,PAYLOAD,2023-08-20 08:59:35,15.12114512,0.0001295,53.2189,262.3065,94.7481,265.366,3.1325e-05,2.48e-06,0.0,0 STARLINK-5392,1 54794U 22175AN  23232.37471361  .00000248  00000-0  31325-4 0  9992,2 54794  53.2189 262.3065 0001295  94.7481 265.3660 15.12114512 37116,6907.89,95.231,530.649,528.86,0.0
54794.0,STARLINK-5392,PAYLOAD,2023-08-21 08:47:16,15.12108271,0.0001269,53.2184,257.831,87.9208,272.1931,4.1058e-06,-2.26e-06,0.0,0 STARLINK-5392,1 54794U 22175AN  23233.36616443 -.00000226  00000-0  41058-5 0  9996,2 54794  53.2184 257.8310 0001269  87.9208 272.1931 15.12108271 37263,6907.909,95.231,530.65,528.897,0.0
54794.0,STARLINK-5392,PAYLOAD,2023-08-22 08:34:57,15.12113598,0.0001332,53.2188,253.3602,89.8098,270.3048,-1.4021e-05,-5.42e-06,0.0,0 STARLINK-5392,1 54794U 22175AN  23234.35760917 -.00000542  00000-0 -14021-4 0  9993,2 54794  53.2188 253.3602 0001332  89.8098 270.3048 15.12113598 37415,6907.892,95.231,530.677,528.837,0.0
